STARLINK-37600          
1 69359U 26123G   26183.20684439  .00258033  00000+0  16366-2 0  9996
2 69359  53.1572 167.1355 0001042  96.2315 263.8824 15.75238009  4409
STARLINK-37599          
1 69360U 26123H   26183.64705595  .00343010  00000+0  16630-2 0  9997
2 69360  53.1568 164.1633 0001203  62.9736 297.1410 15.81006763  4484
STARLINK-37039          
1 69361U 26123J   26182.54935031  .00042721  00000+0  28049-3 0  9999
2 69361  53.1604 170.1359 0000965  49.1043 311.0061 15.75318049  4305
STARLINK-37040          
1 69362U 26123K   26183.56947192  .00362677  00000+0  17535-2 0  9996
2 69362  53.1562 164.3827 0002784  31.8892 328.2299 15.81014713  4474
STARLINK-37582          
1 69363U 26123L   26182.24606366  .00269284  00000+0  16992-2 0  9992
2 69363  53.1558 171.8034 0001367  98.8675 261.2500 15.75323310  4257
STARLINK-37309          
1 69364U 26123M   26182.25958222  .00343498  00000+0  21424-2 0  9991
2 69364  53.1571 171.1532 0002481 126.8538 233.2710 15.75376126  4263
STARLINK-37436          
1 69365U 26123N   26183.24009044  .00308842  00000+0  15082-2 0  9998
2 69365  53.1570 165.8779 0001734 115.8198 244.3004 15.80942241  4426
STARLINK-37581          
1 69366U 26123P   26183.18062807  .00283077  00000+0  13900-2 0  9997
2 69366  53.1573 166.2198 0001380 137.6216 222.4913 15.80892757  4411
STARLINK-37683          
1 69367U 26123Q   26183.67324014  .00323665  00000+0  20247-2 0  9993
2 69367  53.1566 164.3342 0001039  49.4525 310.6585 15.75364828  4487
STARLINK-37687          
1 69368U 26123R   26183.67814237  .00274589  00000+0  13394-2 0  9990
2 69368  53.1569 163.6289 0001111 115.6983 244.4154 15.81059205  4492
STARLINK-37631          
1 69369U 26123S   26183.25657972  .00158524  00000+0  10188-2 0  9994
2 69369  53.1594 165.9881 0001510  97.5469 262.5723 15.75244078  4427
STARLINK-37673          
1 69370U 26123T   26182.26412362  .00257343  00000+0  16277-2 0  9992
2 69370  53.1595 171.1836 0001166  68.7626 291.3519 15.75305102  4262
STARLINK-37645          
1 69371U 26123U   26183.64632874  .00120000  00000+0  77491-3 0  9993
2 69371  53.1585 164.1559 0001350 113.1435 246.9727 15.75268907  4486
STARLINK-37688          
1 69372U 26123V   26183.18826536  .00294592  00000+0  18579-2 0  9992
2 69372  53.1605 166.2684 0000709  57.2505 302.8583 15.75261784  4416
STARLINK-37685          
1 69373U 26123W   26182.98189965  .00217035  00000+0  10752-2 0  9990
2 69373  53.1567 167.1071 0001306  81.1335 278.9835 15.80882743  4384
STARLINK-37632          
1 69374U 26123X   26183.33335647 -.00003436  00000+0 -13870-4 0  9997
2 69374  53.1573 165.3388 0001129  47.6212 158.0438 15.80877133  5595
STARLINK-37454          
1 69375U 26123Y   26183.23294520  .00279266  00000+0  13687-2 0  9999
2 69375  53.1575 165.8269 0001323  94.6820 265.4354 15.80944402  4429
STARLINK-37485          
1 69376U 26123Z   26182.33336806 -.00109234  00000+0 -71661-3 0  9990
2 69376  53.1576 170.6239 0000888  74.3642  63.5013 15.75271939  5572
STARLINK-37439          
1 69377U 26123AA  26183.66762225  .00283682  00000+0  13863-2 0  9993
2 69377  53.1571 163.5556 0001316 107.2475 252.8692 15.80994784  4490
STARLINK-37376          
1 69378U 26123AB  26182.26379833  .00260116  00000+0  16411-2 0  9997
2 69378  53.1592 171.1789 0001081 100.4327 259.6815 15.75354491  4263
STARLINK-37383          
1 69379U 26123AC  26183.24296262  .00193421  00000+0  12361-2 0  9995
2 69379  53.1596 165.8911 0001533  89.5336 270.5860 15.75261074  4428
STARLINK-37411          
1 69380U 26123AD  26183.66897772  .00319217  00000+0  15534-2 0  9994
2 69380  53.1573 163.5642 0000788  92.4389 267.6724 15.80989432  4497
STARLINK-37427          
1 69381U 26123AE  26183.66487875  .00289204  00000+0  14136-2 0  9993
2 69381  53.1576 163.5356 0001254  70.2687 289.8471 15.80975637  4494
QIANFAN-165             
1 69382U 26124A   26183.73293168 -.02066765  00000+0 -12262+1 0  9998
2 69382  88.9978   0.2840 0001331  11.4465 348.6751 14.11777980  4016
QIANFAN-166             
1 69383U 26124B   26183.71684042 -.02076466  00000+0 -12002+1 0  9993
2 69383  88.9981   0.2818 0002940 124.4111 235.7354 14.13220115  4016
QIANFAN-167             
1 69384U 26124C   26183.72320529 -.02086775  00000+0 -12282+1 0  9996
2 69384  88.9976   0.2804 0005350  96.3925 263.7870 14.12252557  4012
QIANFAN-168             
1 69385U 26124D   26183.70441560 -.02040933  00000+0 -11753+1 0  9992
2 69385  88.9982   0.2783 0004124 113.8208 246.3411 14.13349063  4011
QIANFAN-169             
1 69386U 26124E   26183.69727135 -.02006499  00000+0 -11475+1 0  9996
2 69386  88.9982   0.2780 0004242 140.3024 219.8474 14.13652708  4018
QIANFAN-170             
1 69387U 26124F   26183.75592560 -.02085296  00000+0 -11722+1 0  9993
2 69387  88.9988   0.2687 0002741 141.1870 218.9515 14.14754333  4026
QIANFAN-171             
1 69388U 26124G   26183.74375510 -.02112585  00000+0 -11830+1 0  9999
2 69388  88.9981   0.2662 0008005 177.5673 182.5555 14.15001724  4026
